NORAD_CAT_ID,OBJECT_NAME,OBJECT_TYPE,EPOCH,MEAN_MOTION,ECCENTRICITY,INCLINATION,RA_OF_ASC_NODE,ARG_OF_PERICENTER,MEAN_ANOMALY,BSTAR,MEAN_MOTION_DOT,MEAN_MOTION_DDOT,TLE_LINE0,TLE_LINE1,TLE_LINE2,SEMIMAJOR_AXIS,PERIOD,APOGEE,PERIGEE,DECAYED
52350.0,STARLINK-3754,PAYLOAD,2022-06-30 14:00:01,15.41609522,0.0001512,53.2174,133.4659,52.234,150.201,-0.018274,-0.00721662,0.0,0 STARLINK-3754,1 52350U 22045V   22181.58334491 -.00721662  00000-0 -18274-1 0  9998,2 52350  53.2174 133.4659 0001512  52.2340 150.2010 15.41609522  1303,6819.496,93.409,442.392,440.329,0.0
52350.0,STARLINK-3754,PAYLOAD,2022-06-30 16:00:00,15.41479128,0.0001351999999999,53.2174,133.0723,53.0747,252.0835,-0.018227,-0.00717012,0.0,0 STARLINK-3754,1 52350U 22045V   22181.66667824 -.00717012  00000-0 -18227-1 0  9998,2 52350  53.2174 133.0723 0001352  53.0747 252.0835 15.41479128 12230,6819.88,93.417,442.667,440.823,0.0
52350.0,STARLINK-3754,PAYLOAD,2022-06-30 22:00:00,15.41097655,0.000151,53.2174,131.8928,52.3419,200.751,-0.018482,-0.00717781,0.0,0 STARLINK-3754,1 52350U 22045V   22181.91667824 -.00717781  00000-0 -18482-1 0  9992,2 52350  53.2174 131.8928 0001510  52.3419 200.7510 15.41097655  1304,6821.005999999999,93.44,443.901,441.841,0.0
52350.0,STARLINK-3754,PAYLOAD,2022-07-01 14:00:01,15.40079192,0.0001335,53.2174,128.751,51.4045,301.1645,-0.019222,-0.00721304,0.0,0 STARLINK-3754,1 52350U 22045V   22182.58334491 -.00721304  00000-0 -19222-1 0  9996,2 52350  53.2174 128.7510 0001335  51.4045 301.1645 15.40079192  1306,6824.012,93.502,446.788,444.966,0.0
52350.0,STARLINK-3754,PAYLOAD,2022-07-01 22:00:00,15.39568275,0.0001469,53.2175,127.1817,46.3724,355.0157,-0.019482,-0.00718991,0.0,0 STARLINK-3754,1 52350U 22045V   22182.91667824 -.00718991  00000-0 -19482-1 0  9998,2 52350  53.2175 127.1817 0001469  46.3724 355.0157 15.39568275  1304,6825.522,93.533,448.39,446.384,0.0
52350.0,STARLINK-3754,PAYLOAD,2022-07-02 14:00:01,15.38547209,0.0001606,53.2176,124.047,44.7266,92.4616,-0.020095,-0.00717223,0.0,0 STARLINK-3754,1 52350U 22045V   22183.58334491 -.00717223  00000-0 -20095-1 0  9992,2 52350  53.2176 124.0470 0001606  44.7266  92.4616 15.38547209  1307,6828.542,93.595,451.503,449.31,0.0
52350.0,STARLINK-3754,PAYLOAD,2022-07-02 22:00:00,15.38036749,0.0001633,53.2178,122.4816,48.094,136.0748,-0.020404,-0.00716241,0.0,0 STARLINK-3754,1 52350U 22045V   22183.91667824 -.00716241  00000-0 -20404-1 0  9991,2 52350  53.2178 122.4816 0001633  48.0940 136.0748 15.38036749  1304,6830.052,93.626,453.033,450.802,0.0
52350.0,STARLINK-3754,PAYLOAD,2022-07-03 00:00:00,15.37909068,0.0001675,53.2174,122.0913,40.9751,244.8425,-0.020472,-0.00715682,0.0,0 STARLINK-3754,1 52350U 22045V   22184.00001157 -.00715682  00000-0 -20472-1 0  9996,2 52350  53.2174 122.0913 0001675  40.9751 244.8425 15.37909068 12596,6830.43,93.634,453.439,451.151,0.0
52350.0,STARLINK-3754,PAYLOAD,2022-07-03 14:00:01,15.37018464,0.0001501,53.2176,119.3538,48.643,227.6483,-0.021181,-0.00718968,0.0,0 STARLINK-3754,1 52350U 22045V   22184.58334491 -.00718968  00000-0 -21181-1 0  9997,2 52350  53.2176 119.3538 0001501  48.6430 227.6483 15.37018464  1308,6833.069,93.688,455.959,453.908,0.0
52350.0,STARLINK-3754,PAYLOAD,2022-07-03 22:00:00,15.36508406,0.0001485,53.2178,117.7922,48.0318,273.4014,-0.02152,-0.00718509,0.0,0 STARLINK-3754,1 52350U 22045V   22184.91667824 -.00718509  00000-0 -21520-1 0  9991,2 52350  53.2178 117.7922 0001485  48.0318 273.4014 15.36508406 12747,6834.581,93.719,457.461,455.431,0.0
52350.0,STARLINK-3754,PAYLOAD,2022-07-04 14:00:01,15.35487114,0.000151,53.2175,114.6715,42.8103,7.0702,-0.022189,-0.00716926,0.0,0 STARLINK-3754,1 52350U 22045V   22185.58334491 -.00716926  00000-0 -22189-1 0  9999,2 52350  53.2175 114.6715 0001510  42.8103   7.0702 15.35487114  1309,6837.611,93.781,460.508,458.444,0.0
52350.0,STARLINK-3754,PAYLOAD,2022-07-04 22:00:00,15.34978509,0.000177,53.2176,113.1137,37.3396,55.8438,-0.022621,-0.00718907,0.0,0 STARLINK-3754,1 52350U 22045V   22185.91667824 -.00718907  00000-0 -22621-1 0  9997,2 52350  53.2176 113.1137 0001770  37.3396  55.8438 15.34978509  1302,6839.121,93.812,462.197,459.776,0.0
52350.0,STARLINK-3754,PAYLOAD,2022-07-05 14:00:01,15.33956206,0.0001606,53.2174,110.0002,47.0958,130.8581,-0.02322,-0.00714526,0.0,0 STARLINK-3754,1 52350U 22045V   22186.58334491 -.00714526  00000-0 -23220-1 0  9991,2 52350  53.2174 110.0002 0001606  47.0958 130.8581 15.33956206  1309,6842.16,93.875,465.12300000000016,462.926,0.0
52350.0,STARLINK-3754,PAYLOAD,2022-07-05 22:00:00,15.33446856,0.000161,53.2176,108.4462,49.8862,169.5325,-0.023638,-0.007156,0.0,0 STARLINK-3754,1 52350U 22045V   22186.91667824 -.00715600  00000-0 -23638-1 0  9994,2 52350  53.2176 108.4462 0001610  49.8862 169.5325 15.33446856  1301,6843.675,93.906,466.641,464.43800000000016,0.0
52350.0,STARLINK-3754,PAYLOAD,2022-07-06 06:00:00,15.32934955,0.0001498,53.2173,106.8939,52.8168,207.4544,-0.023879,-0.00711558,0.0,0 STARLINK-3754,1 52350U 22045V   22187.25001157 -.00711558  00000-0 -23879-1 0  9998,2 52350  53.2173 106.8939 0001498  52.8168 207.4544 15.32934955 13091,6845.198,93.937,468.089,466.038,0.0
52350.0,STARLINK-3754,PAYLOAD,2022-07-06 14:00:01,15.32426158,0.0001492,53.2174,105.3398,47.17,253.3421,-0.024369,-0.00714339,0.0,0 STARLINK-3754,1 52350U 22045V   22187.58334491 -.00714339  00000-0 -24369-1 0  9999,2 52350  53.2174 105.3398 0001492  47.1700 253.3421 15.32426158  1304,6846.7130000000025,93.969,469.6,467.557,0.0
52350.0,STARLINK-3754,PAYLOAD,2022-07-06 22:00:00,15.3191812,0.0001548,53.2175,103.7894,45.1664,294.9716,-0.024873,-0.00717293,0.0,0 STARLINK-3754,1 52350U 22045V   22187.91667824 -.00717293  00000-0 -24873-1 0  9997,2 52350  53.2175 103.7894 0001548  45.1664 294.9716 15.31918120  1309,6848.227,94.0,471.152,469.032,0.0
52350.0,STARLINK-3754,PAYLOAD,2022-07-07 04:21:45,15.32848258,0.0002293,53.2168,102.5701,32.1695,327.9447,-0.006594,-0.00206772,0.0,0 STARLINK-3754,1 52350U 22045V   22188.18177883 -.00206772  00000-0 -65940-2 0  9994,2 52350  53.2168 102.5701 0002293  32.1695 327.9447 15.32848258 13242,6845.456,93.943,468.891,465.752,0.0
52350.0,STARLINK-3754,PAYLOAD,2022-07-07 14:00:01,15.3089601,0.0001534,53.2174,100.69,43.2011,14.3545,-0.025568,-0.00714304,0.0,0 STARLINK-3754,1 52350U 22045V   22188.58334491 -.00714304  00000-0 -25568-1 0  9994,2 52350  53.2174 100.6900 0001534  43.2011  14.3545 15.30896010  1308,6851.275,94.063,474.191,472.089,0.0
52350.0,STARLINK-3754,PAYLOAD,2022-07-07 22:00:00,15.30387894,0.0001663,53.2174,99.1435,43.1763,52.1666,-0.026084,-0.00717041,0.0,0 STARLINK-3754,1 52350U 22045V   22188.91667824 -.00717041  00000-0 -26084-1 0  9995,2 52350  53.2174  99.1435 0001663  43.1763  52.1666 15.30387894  1308,6852.791,94.094,475.796,473.516,0.0
52350.0,STARLINK-3754,PAYLOAD,2022-07-08 14:00:01,15.29366569,0.0001608,53.2172,96.0513,48.3036,120.7796,-0.026827,-0.00714614,0.0,0 STARLINK-3754,1 52350U 22045V   22189.58334491 -.00714614  00000-0 -26827-1 0  9998,2 52350  53.2172  96.0513 0001608  48.3036 120.7796 15.29366569 13457,6855.842,94.157,478.809,476.604,0.0
52350.0,STARLINK-3754,PAYLOAD,2022-07-08 22:00:01,15.28855918,0.0001834,53.2174,94.5084,41.6762,163.4206,-0.027199,-0.00713308,0.0,0 STARLINK-3754,1 52350U 22045V   22189.91668981 -.00713308  00000-0 -27199-1 0  9991,2 52350  53.2174  94.5084 0001834  41.6762 163.4206 15.28855918  1309,6857.368,94.188,480.491,477.976,0.0
52350.0,STARLINK-3754,PAYLOAD,2022-07-09 14:00:01,15.27835787,0.0001547,53.2173,91.4232,48.1606,226.9358,-0.028054,-0.00721201,0.0,0 STARLINK-3754,1 52350U 22045V   22190.58334491 -.00721201  00000-0 -28054-1 0  9994,2 52350  53.2173  91.4232 0001547  48.1606 226.9358 15.27835787  1303,6860.42,94.251,483.347,481.224,0.0
52350.0,STARLINK-3754,PAYLOAD,2022-07-09 16:00:00,15.27708202,0.0001536,53.2172,91.0378,45.1969,328.4851,-0.02818,-0.00721584,0.0,0 STARLINK-3754,1 52350U 22045V   22190.66667824 -.00721584  00000-0 -28180-1 0  9996,2 52350  53.2172  91.0378 0001536  45.1969 328.4851 15.27708202 13621,6860.802,94.259,483.721,481.61300000000006,0.0
52350.0,STARLINK-3754,PAYLOAD,2022-07-09 20:00:01,15.27454296,0.0001859,53.2175,90.2686,40.3738,170.3633,-0.028448,-0.00722764,0.0,0 STARLINK-3754,1 52350U 22045V   22190.83334491 -.00722764  00000-0 -28448-1 0  9994,2 52350  53.2175  90.2686 0001859  40.3738 170.3633 15.27454296  1301,6861.563,94.275,484.703,482.152,0.0
52350.0,STARLINK-3754,PAYLOAD,2022-07-10 14:00:01,15.26305391,0.0001656,53.2172,86.8059,38.066,337.5285,-0.029376,-0.00720765,0.0,0 STARLINK-3754,1 52350U 22045V   22191.58334491 -.00720765  00000-0 -29376-1 0  9997,2 52350  53.2172  86.8059 0001656  38.0660 337.5285 15.26305391  1306,6865.005,94.345,488.007,485.734,0.0
52350.0,STARLINK-3754,PAYLOAD,2022-07-10 22:00:00,15.25798115,0.0001784,53.2174,85.2707,37.3874,10.4788,-0.030007,-0.00724738,0.0,0 STARLINK-3754,1 52350U 22045V   22191.91667824 -.00724738  00000-0 -30007-1 0  9990,2 52350  53.2174  85.2707 0001784  37.3874  10.4788 15.25798115 13815,6866.526999999999,94.377,489.617,487.167,0.0
52350.0,STARLINK-3754,PAYLOAD,2022-07-11 14:00:01,15.24777372,0.0001742,53.2173,82.1995,40.3319,70.2447,-0.03092,-0.00724157,0.0,0 STARLINK-3754,1 52350U 22045V   22192.58334491 -.00724157  00000-0 -30920-1 0  9994,2 52350  53.2173  82.1995 0001742  40.3319  70.2447 15.24777372  1309,6869.590999999999,94.44,492.653,490.259,0.0
52350.0,STARLINK-3754,PAYLOAD,2022-07-11 22:00:00,15.24266683,0.0001958,53.2173,80.668,36.9451,104.066,-0.0313209999999999,-0.00722518,0.0,0 STARLINK-3754,1 52350U 22045V   22192.91667824 -.00722518  00000-0 -31321-1 0  9995,2 52350  53.2173  80.6680 0001958  36.9451 104.0660 15.24266683 13966,6871.125,94.472,494.336,491.645,0.0
52350.0,STARLINK-3754,PAYLOAD,2022-07-12 14:00:01,15.23248194,0.0001713,53.2172,77.6039,45.9605,154.0834,-0.03243,-0.00725406,0.0,0 STARLINK-3754,1 52350U 22045V   22193.58334491 -.00725406  00000-0 -32430-1 0  9991,2 52350  53.2172  77.6039 0001713  45.9605 154.0834 15.23248194  1308,6874.188,94.535,497.23,494.875,0.0
